COMMENT,ORIGINATOR,NORAD_CAT_ID,OBJECT_NAME,OBJECT_TYPE,CLASSIFICATION_TYPE,INTLDES,EPOCH,EPOCH_MICROSECONDS,MEAN_MOTION,ECCENTRICITY,INCLINATION,RA_OF_ASC_NODE,ARG_OF_PERICENTER,MEAN_ANOMALY,EPHEMERIS_TYPE,ELEMENT_SET_NO,REV_AT_EPOCH,BSTAR,MEAN_MOTION_DOT,MEAN_MOTION_DDOT,FILE,TLE_LINE0,TLE_LINE1,TLE_LINE2,OBJECT_ID,OBJECT_NUMBER,SEMIMAJOR_AXIS,PERIOD,APOGEE,PERIGEE,DECAYED
GENERATED VIA SPACETRACK.ORG API,18 SPCS,51976,STARLINK-3663,PAYLOAD,U,22025W,2025-08-17 20:38:32,870688,15.5866889,0.0001815,53.2102,184.7651,32.1175,327.9949,0,999,19099,0.00093876,0.00073625,0.0,4817429,0 STARLINK-3663,1 51976U 22025W   25229.86010267  .00073625  00000-0  93876-3 0  9998,2 51976  53.2102 184.7651 0001815  32.1175 327.9949 15.58668890190996,2022-025W,51976,6769.646,92.387,392.739,390.282,0
GENERATED VIA SPACETRACK.ORG API,18 SPCS,51976,STARLINK-3663,PAYLOAD,U,22025W,2025-08-18 13:34:11,193312,15.58768142,0.0001693,53.21,181.3491,35.2204,324.8921,0,999,19110,0.00088023,0.00069225,0.0,4818027,0 STARLINK-3663,1 51976U 22025W   25230.56540733  .00069225  00000-0  88023-3 0  9992,2 51976  53.2100 181.3491 0001693  35.2204 324.8921 15.58768142191101,2022-025W,51976,6769.358,92.381,392.369,390.077,0
GENERATED VIA SPACETRACK.ORG API,18 SPCS,51976,STARLINK-3663,PAYLOAD,U,22025W,2025-08-19 03:25:06,824640,15.58859286,0.0001518,53.2098,178.5534,35.4455,324.666,0,999,19229,0.0010861,0.00086011,0.0,4818659,0 STARLINK-3663,1 51976U 22025W   25231.14244010  .00086011  00000-0  10861-2 0  9992,2 51976  53.2098 178.5534 0001518  35.4455 324.6660 15.58859286192298,2022-025W,51976,6769.094,92.375,391.987,389.932,0
GENERATED VIA SPACETRACK.ORG API,18 SPCS,51976,STARLINK-3663,PAYLOAD,U,22025W,2025-08-19 03:25:06,824640,15.58859286,0.0001518,53.2098,178.5534,35.4455,324.666,0,999,19119,0.0010861,0.00086011,0.0,4818969,0 STARLINK-3663,1 51976U 22025W   25231.14244010  .00086011  00000-0  10861-2 0  9992,2 51976  53.2098 178.5534 0001518  35.4455 324.6660 15.58859286191196,2022-025W,51976,6769.094,92.375,391.987,389.932,0
GENERATED VIA SPACETRACK.ORG API,18 SPCS,51976,STARLINK-3663,PAYLOAD,U,22025W,2025-08-20 13:16:03,865728,15.59087012,0.0001776,53.2104,171.7195,34.8236,325.2894,0,999,19141,0.0010041,0.00080112,0.0,4819966,0 STARLINK-3663,1 51976U 22025W   25232.55282252  .00080112  00000-0  10041-2 0  9994,2 51976  53.2104 171.7195 0001776  34.8236 325.2894 15.59087012191410,2022-025W,51976,6768.435,92.362,391.502,389.098,0
GENERATED VIA SPACETRACK.ORG API,18 SPCS,51976,STARLINK-3663,PAYLOAD,U,22025W,2025-08-20 19:25:17,782176,15.59126923,0.000179,53.2107,170.4769,35.2778,324.8354,0,999,19145,0.00099888,0.00079811,0.0,4820012,0 STARLINK-3663,1 51976U 22025W   25232.80923359  .00079811  00000-0  99888-3 0  9993,2 51976  53.2107 170.4769 0001790  35.2778 324.8354 15.59126923191453,2022-025W,51976,6768.32,92.359,391.396,388.973,0
GENERATED VIA SPACETRACK.ORG API,18 SPCS,51976,STARLINK-3663,PAYLOAD,U,22025W,2025-08-23 22:47:30,100416,15.596974038,0.00017285208,53.211197,155.2521,36.437057,323.6761,0,999,19194,0.0010849683,0.00088740819,0.0,4820264,0 STARLINK-3663,1 51976U 22025W   25235.94965394  .00088741  00000-0  10850-2 0  9999,2 51976  53.2112 155.2521 0001729  36.4371 323.6761 15.59697404191940,2022-025W,51976,6766.669,92.326,389.704,387.365,0
GENERATED VIA SPACETRACK.ORG API,18 SPCS,51976,STARLINK-3663,PAYLOAD,U,22025W,2025-08-24 01:52:02,788320,15.597177175,0.00016341914,53.211474,154.63074,35.362192,324.75004,0,999,19196,0.0010851361,0.00088824156,0.0,4820322,0 STARLINK-3663,1 51976U 22025W   25236.07781005  .00088824  00000-0  10851-2 0  9992,2 51976  53.2115 154.6307 0001634  35.3622 324.7500 15.59717718191966,2022-025W,51976,6766.61,92.324,389.581,387.37,0
GENERATED VIA SPACETRACK.ORG API,18 SPCS,51976,STARLINK-3663,PAYLOAD,U,22025W,2025-08-24 21:51:31,117248,15.598760807,0.00014723488,53.211402,150.5902,34.247294,325.86361,0,999,19209,0.0011769496,0.00097068238,0.0,4820340,0 STARLINK-3663,1 51976U 22025W   25236.91077682  .00097068  00000-0  11769-2 0  9993,2 51976  53.2114 150.5902 0001472  34.2473 325.8636 15.59876081192099,2022-025W,51976,6766.152,92.315,389.014,387.021,0
GENERATED VIA SPACETRACK.ORG API,18 SPCS,51976,STARLINK-3663,PAYLOAD,U,22025W,2025-08-25 04:00:33,748128,15.599265683,0.00016139879,53.211525,149.34634,33.80345,326.30825,0,999,19213,0.0011441632,0.00094502516,0.0,4820412,0 STARLINK-3663,1 51976U 22025W   25237.16705727  .00094503  00000-0  11442-2 0  9998,2 51976  53.2115 149.3463 0001614  33.8035 326.3083 15.59926568192138,2022-025W,51976,6766.006,92.312,388.963,386.779,0
GENERATED VIA SPACETRACK.ORG API,18 SPCS,51976,STARLINK-3663,PAYLOAD,U,22025W,2025-08-25 22:27:37,715616,15.60070476,0.00015352355,53.211779,145.61468,37.930356,322.18188,0,999,19225,0.0012554785,0.0010444975,0.0,4820461,0 STARLINK-3663,1 51976U 22025W   25237.93585319  .00104450  00000-0  12555-2 0  9995,2 51976  53.2118 145.6147 0001535  37.9304 322.1819 15.60070476192259,2022-025W,51976,6765.59,92.304,388.494,386.417,0
GENERATED VIA SPACETRACK.ORG API,18 SPCS,51976,STARLINK-3663,PAYLOAD,U,22025W,2025-08-26 10:45:36,865440,15.601618529,0.00014849347,53.211134,143.12799,34.955225,325.15594,0,999,19233,0.0011399215,0.00095008882,0.0,4820578,0 STARLINK-3663,1 51976U 22025W   25238.44834335  .00095009  00000-0  11399-2 0  9991,2 51976  53.2111 143.1280 0001485  34.9552 325.1559 15.60161853192332,2022-025W,51976,6765.326,92.298,388.196,386.187,0
GENERATED VIA SPACETRACK.ORG API,18 SPCS,51976,STARLINK-3663,PAYLOAD,U,22025W,2025-08-26 23:03:32,774400,15.602826373,0.00013366701,53.210442,140.63954,33.625391,326.48452,0,999,19241,0.0012590477,0.0010561906,0.0,4820598,0 STARLINK-3663,1 51976U 22025W   25238.96079600  .00105619  00000-0  12590-2 0  9997,2 51976  53.2104 140.6395 0001337  33.6254 326.4845 15.60282637192419,2022-025W,51976,6764.977,92.291,387.746,385.938,0
GENERATED VIA SPACETRACK.ORG API,18 SPCS,51976,STARLINK-3663,PAYLOAD,U,22025W,2025-08-27 03:40:15,545280,15.603180555,0.00012921325,53.210427,139.70651,34.064434,326.04529,0,999,19244,0.0012419176,0.0010429947,0.0,4820647,0 STARLINK-3663,1 51976U 22025W   25239.15295770  .00104299  00000-0  12419-2 0  9990,2 51976  53.2104 139.7065 0001292  34.0644 326.0453 15.60318056192449,2022-025W,51976,6764.875,92.289,387.614,385.866,0
GENERATED VIA SPACETRACK.ORG API,18 SPCS,51976,STARLINK-3663,PAYLOAD,U,22025W,2025-08-27 22:07:02,446176,15.604777306,0.00012911475,53.210448,135.97415,25.761301,334.34656,0,999,19256,0.0013666504,0.0011569805,0.0,4820797,0 STARLINK-3663,1 51976U 22025W   25239.92155609  .00115698  00000-0  13667-2 0  9992,2 51976  53.2104 135.9742 0001291  25.7613 334.3466 15.60477731192566,2022-025W,51976,6764.413,92.279,387.152,385.405,0
GENERATED VIA SPACETRACK.ORG API,18 SPCS,51976,STARLINK-3663,PAYLOAD,U,22025W,2025-08-27 23:39:16,26624,15.604918853,0.00012720703,53.210481,135.66306,25.825544,334.28224,0,999,19257,0.0013738068,0.0011637978,0.0,4820893,0 STARLINK-3663,1 51976U 22025W   25239.98560216  .00116380  00000-0  13738-2 0  9990,2 51976  53.2105 135.6631 0001272  25.8255 334.2822 15.60491885192575,2022-025W,51976,6764.372,92.279,387.098,385.377,0
GENERATED VIA SPACETRACK.ORG API,18 SPCS,51976,STARLINK-3663,PAYLOAD,U,22025W,2025-08-28 22:42:34,30080,15.606945618,0.00012075002,53.210465,130.99803,27.631426,332.47644,0,999,19272,0.0012646939,0.0010781823,0.0,4820901,0 STARLINK-3663,1 51976U 22025W   25240.94622720  .00107818  00000-0  12647-2 0  9991,2 51976  53.2105 130.9980 0001208  27.6314 332.4764 15.60694562192724,2022-025W,51976,6763.787,92.267,386.468,384.835,0
GENERATED VIA SPACETRACK.ORG API,18 SPCS,51976,STARLINK-3663,PAYLOAD,U,22025W,2025-08-29 23:17:53,39328,15.609264582,0.00011055129,53.21045,126.01906,17.111644,342.99354,0,999,19288,0.0012840106,0.0011049273,0.0,4821102,0 STARLINK-3663,1 51976U 22025W   25241.97075277  .00110493  00000-0  12840-2 0  9992,2 51976  53.2105 126.0191 0001106  17.1116 342.9935 15.60926458192880,2022-025W,51976,6763.117,92.253,385.729,384.234,0
GENERATED VIA SPACETRACK.ORG API,18 SPCS,51976,STARLINK-3663,PAYLOAD,U,22025W,2025-08-30 02:22:16,948992,15.609563266,0.00010384744,53.210359,125.3967,21.756989,338.34888,0,999,19290,0.0012341426,0.0010624725,0.0,4821106,0 STARLINK-3663,1 51976U 22025W   25242.09880728  .00106247  00000-0  12341-2 0  9999,2 51976  53.2104 125.3967 0001038  21.7570 338.3489 15.60956327192905,2022-025W,51976,6763.03,92.251,385.598,384.193,0
GENERATED VIA SPACETRACK.ORG API,18 SPCS,51976,STARLINK-3663,PAYLOAD,U,22025W,2025-08-30 20:48:36,849024,15.611102935,0.00011704233,53.210251,121.66247,19.128647,340.97721,0,999,19302,0.0012413618,0.0010752654,0.0,4821165,0 STARLINK-3663,1 51976U 22025W   25242.86709316  .00107527  00000-0  12414-2 0  9990,2 51976  53.2103 121.6625 0001170  19.1286 340.9772 15.61110294193020,2022-025W,51976,6762.586,92.242,385.242,383.659,0
GENERATED VIA SPACETRACK.ORG API,18 SPCS,51976,STARLINK-3663,PAYLOAD,U,22025W,2025-08-31 01:25:10,840800,15.611422878,0.00010741272,53.210439,120.72936,23.978477,336.12799,0,999,19305,0.0011804312,0.0010228248,0.0,4821198,0 STARLINK-3663,1 51976U 22025W   25243.05915325  .00102282  00000-0  11804-2 0  9996,2 51976  53.2104 120.7294 0001074  23.9785 336.1280 15.61142288193055,2022-025W,51976,6762.493,92.24,385.085,383.632,0
GENERATED VIA SPACETRACK.ORG API,18 SPCS,51976,STARLINK-3663,PAYLOAD,U,22025W,2025-08-31 09:06:06,587424,15.612012731,0.00010761417,53.210454,119.17437,25.37399,334.73276,0,999,19310,0.0011702059,0.0010161505,0.0,4821225,0 STARLINK-3663,1 51976U 22025W   25243.37924291  .00101615  00000-0  11702-2 0  9999,2 51976  53.2105 119.1744 0001076  25.3740 334.7328 15.61201273193100,2022-025W,51976,6762.323,92.237,384.916,383.46,0
